# From  26, 114
D/1766 G1 (Helfenzrieder),e,8.716,93.542,175.688,2.72377,0.219254,0.8521337,278.660,10/24.0/2023,2000,g  9.0,4.0
# From  89, 256
D/1884 O1 (Barnard),e,9.3075,332.8945,339.8273,3.084040,0.1819802,0.57126208,213.2776,10/24.0/2023,2000,g  9.0,4.0
# From  89, 256
D/1886 K1 (Brooks),e,10.9262,39.1626,208.4420,3.551738,0.1472458,0.46834825,271.1652,10/24.0/2023,2000,g  9.0,4.0
# From CCO 8
D/1894 F1 (Denning),e,1.4228,297.3388,198.4086,3.825628,0.1317195,0.69385169,88.7868,10/24.0/2023,2000,g  9.0,4.0
# From  13, 428
D/1895 Q1 (Swift),e,13.5236,135.7905,199.2576,3.723085,0.1371986,0.62685263,266.3667,10/24.0/2023,2000,g  9.0,4.0
# From  114, 147
D/1918 W1 (Schorr),e,6.8224,75.9292,326.4430,4.154732,0.1163830,0.31783834,322.4003,10/24.0/2023,2000,g  9.0,4.0
# From MPC 4601
D/1952 B1 (Harrington-Wilson),e,11.1702,116.4089,5.0011,3.079328,0.1823980,0.62506844,83.3425,10/24.0/2023,2000,g  9.0,4.0
# From MPC 11152
D/1977 C1 (Skiff-Kosai),e,3.1988,80.2889,25.2173,3.827114,0.1316427,0.26878804,107.7258,10/24.0/2023,2000,g  9.0,4.0
# From NK 779
D/1978 R1 (Haneda-Campos),e,4.9452,66.4918,307.1734,3.456060,0.1534024,0.62937617,29.0478,10/24.0/2023,2000,g  9.0,4.0
# From MPC 23764
D/1993 F2-D (Shoemaker-Levy),e,40.9111,160.7188,223.7471,4.219047,0.1137320,0.33201100,357.6914,10/24.0/2023,2000,g  9.0,4.0
# From MPEC 2022-S20
C/1995 O1 (Hale-Bopp),e,89.4002,282.4406,130.1942,177.1067,0.0004182,0.99498807,0.0000,03/30.7972/1997,2000,g -2.0,4.0
# From NK 1615
P/1996 R2 (Lagerkvist),e,2.6000,40.0588,333.4104,3.774008,0.1344311,0.31460503,230.2597,10/24.0/2023,2000,g 11.5,4.0
# From MPC 75703
P/1998 VS24 (LINEAR),e,5.0282,159.0762,244.6818,4.523377,0.1024495,0.24359443,215.1758,10/24.0/2023,2000,g 13.0,2.0
# From NK 731
P/1999 RO28 (LONEOS),e,7.5674,137.8839,231.3071,3.426104,0.1554187,0.67248193,245.4453,10/24.0/2023,2000,g 20.0,2.0
# From MPC 75704
P/1999 XN120 (Catalina),e,5.0299,285.2637,161.6783,4.179114,0.1153660,0.21071534,268.8032,10/24.0/2023,2000,g 13.5,2.0
# From NK 744
P/2000 R2 (LINEAR),e,11.6839,160.2952,176.5922,3.468174,0.1525993,0.53105737,242.4886,10/24.0/2023,2000,g 18.0,4.0
# From MPC 43019
P/2001 H5 (NEAT),e,8.3680,328.6350,224.6929,6.095677,0.0654894,0.59827399,192.3123,10/24.0/2023,2000,g 12.0,4.0
# From MPC 75704
P/2001 Q6 (NEAT),e,56.9121,22.1936,42.9251,7.969996,0.0438043,0.82363851,354.4230,10/24.0/2023,2000,g 13.5,4.0
# From MPC 47727
P/2002 EJ57 (LINEAR),e,4.9801,330.2594,167.2746,6.459169,0.0600398,0.59290199,117.3322,10/24.0/2023,2000,g 12.5,4.0
# From MPC109588
P/2002 T6 (NEAT-LINEAR),e,10.8567,205.9911,219.3049,7.789204,0.0453382,0.56518939,347.8504,10/24.0/2023,2000,g 10.5,4.0
# From MPC 75007
C/2002 VQ94 (LINEAR),e,70.7138,35.1659,99.8769,184.7471,0.0003925,0.96328502,2.5401,10/24.0/2023,2000,g  9.5,2.0
# From MPC 50354
P/2003 F2 (NEAT),e,11.6272,358.9797,192.2629,6.500835,0.0594635,0.54137897,85.7374,10/24.0/2023,2000,g 16.5,2.0
# From MPC 50139
P/2003 QX29 (NEAT),e,11.3969,264.5385,37.6714,8.008142,0.0434917,0.47200894,331.5973,10/24.0/2023,2000,g  8.5,4.0
# From MPC105235
P/2003 T12 (SOHO),e,11.0252,174.5858,219.7698,2.584692,0.2371870,0.77027705,299.8135,10/24.0/2023,2000,g 17.0,4.0
# From MPC 54558
P/2004 DO29 (Spacewatch-LINEAR),e,14.5289,147.3241,40.4794,7.304779,0.0499222,0.44181202,348.8602,10/24.0/2023,2000,g 13.5,2.0
# From MPEC 2022-YN2
P/2004 FY140 (LINEAR),e,2.1619,327.2733,254.1307,4.970082,0.0889526,0.19180281,251.7000,10/24.0/2023,2000,g 12.5,2.0
# From MPC 53304
P/2004 R3 (LINEAR-NEAT),e,12.7893,305.1355,37.6138,4.755799,0.0950318,0.25470258,72.7288,10/24.0/2023,2000,g 14.5,4.0
# From MPC 75705
P/2004 V5 (LINEAR-Hill),e,19.3478,47.7394,87.4639,8.005462,0.0435135,0.44619406,299.6743,10/24.0/2023,2000,g  8.0,4.0
# From MPC 75705
P/2004 V5-B (LINEAR-Hill),e,19.3479,47.7397,87.4667,8.005884,0.0435101,0.44621948,299.6373,10/24.0/2023,2000,g  8.0,4.0
# From MPC 54164
P/2005 E1 (Tubbiolo),e,4.2624,335.5282,193.8722,7.058215,0.0525608,0.37622220,1.3764,10/24.0/2023,2000,g 10.0,4.0
# From MPC 79019
P/2005 J1 (McNaught),e,31.7382,268.7981,338.9217,3.573185,0.1459220,0.56892294,268.5200,10/24.0/2023,2000,g 16.5,4.0
# From MPC 74246
P/2005 L1 (McNaught),e,7.6609,137.5966,151.4937,4.013278,0.1225901,0.21918279,87.1068,10/24.0/2023,2000,g  9.5,4.0
# From MPC 75706
P/2005 S2 (Skiff),e,3.1367,161.3646,229.5897,7.996538,0.0435864,0.19890202,276.5272,10/24.0/2023,2000,g  7.5,4.0
# From MPC 75706
P/2005 SB216 (LONEOS),e,24.1103,1.1276,83.2184,7.151152,0.0515395,0.46532387,318.0577,10/24.0/2023,2000,g 12.0,2.0
# From MPC 73461
P/2005 T3 (Read),e,6.2263,27.6713,6.7435,7.587740,0.0471558,0.17555803,311.6121,10/24.0/2023,2000,g  9.0,4.0
# From MPC 73461
P/2005 T4 (SWAN),e,60.2891,25.9495,41.8700,9.356151,0.0344396,0.92996612,226.7018,10/24.0/2023,2000,g 15.0,4.0
# From MPC 75706
P/2005 T5 (Broughton),e,21.3835,57.0686,304.7079,7.272249,0.0502575,0.55248674,329.8670,10/24.0/2023,2000,g 11.0,4.0
# From MPC 75707
P/2006 HR30 (Siding Spring),e,31.9033,309.8458,117.3916,7.804980,0.0452008,0.84352398,278.1040,10/24.0/2023,2000,g 11.0,4.0
# From MPC 75707
P/2007 C2 (Catalina),e,8.6124,275.2671,180.1532,7.006335,0.0531457,0.47283572,313.2262,10/24.0/2023,2000,g 10.0,4.0
# From MPC 84315
C/2007 D1 (LINEAR),e,41.5035,171.1883,339.7034,1143,0.0000255,0.99233226,0.0000,06/08.6520/2007,2000,g  3.5,4.0
# From MPC 82314
P/2007 K2 (Gibbs),e,7.6252,188.5910,347.3120,7.290273,0.0500712,0.68397178,301.8682,10/24.0/2023,2000,g 14.0,4.0
# From MPC 60925
P/2007 Q2 (Gilmore),e,10.2010,172.1894,162.8706,5.660266,0.0731895,0.66962635,77.6795,10/24.0/2023,2000,g 16.0,4.0
# From MPC 73462
P/2007 S1 (Zhao),e,5.9650,141.3315,245.2031,3.817042,0.1321642,0.33851671,50.5240,10/24.0/2023,2000,g 13.0,4.0
# From MPC 61994
P/2007 T2 (Kowalski),e,9.7508,3.3896,359.6708,3.044221,0.1855623,0.78565593,355.4320,10/24.0/2023,2000,g 18.5,4.0
# From MPC 64114
P/2008 O3 (Boattini),e,32.3293,47.6082,341.1676,8.211389,0.0418870,0.69665132,235.1979,10/24.0/2023,2000,g 13.0,4.0
# From MPC 75710
P/2008 Y3 (McNaught),e,38.7780,262.8285,238.0495,8.045380,0.0431901,0.44669299,234.3942,10/24.0/2023,2000,g  8.5,4.0
# From MPC 75710
P/2009 B1 (Boattini),e,22.2491,297.1046,128.9194,6.734384,0.0563972,0.63599910,304.7132,10/24.0/2023,2000,g 13.0,4.0
# From MPC 66466
C/2009 G1 (STEREO),e,8.5293,120.6852,175.5292,464.8927,0.0000983,0.99751910,0.0000,04/15.2014/2009,2000,g  9.0,4.0
# From MPC 75710
P/2009 O3 (Hill),e,16.2782,183.7090,154.4819,7.767141,0.0455315,0.68727018,239.4243,10/24.0/2023,2000,g 12.5,4.0
# From MPC 68902
P/2009 Q5 (McNaught),e,40.9854,160.2846,209.1409,7.426660,0.0486983,0.60985209,250.6435,10/24.0/2023,2000,g 10.0,4.0
# From MPC112389
P/2009 T2 (La Sagra),e,27.6168,216.3609,215.9013,7.714433,0.0459990,0.76711484,231.8320,10/24.0/2023,2000,g 14.0,4.0
# From MPC105235
P/2009 WX51 (Catalina),e,9.5923,31.5577,118.2530,3.082717,0.1820973,0.73931780,195.3113,10/24.0/2023,2000,g 19.0,2.0
# From MPC 74247
P/2009 Y2 (Kowalski),e,29.9692,262.0788,172.1460,6.546741,0.0588391,0.63726951,293.2346,10/24.0/2023,2000,g 13.0,4.0
# From MPC 75711
P/2010 A3 (Hill),e,14.8186,63.6507,42.2375,6.092559,0.0655397,0.73400563,326.9323,10/24.0/2023,2000,g 14.0,4.0
# From MPC 75008
P/2010 C1 (Scotti),e,9.1194,141.6616,3.2210,7.113740,0.0519466,0.26196779,266.3882,10/24.0/2023,2000,g  9.5,4.0
# From MPC 75008
P/2010 D2 (WISE),e,57.1131,319.8734,119.9320,6.721898,0.0565544,0.45170357,283.4174,10/24.0/2023,2000,g 16.0,4.0
# From MPC 75009
P/2010 E2 (Jarnac),e,15.3923,177.7943,8.2760,8.639559,0.0388121,0.71965622,192.7901,10/24.0/2023,2000,g 14.0,4.0
# From MPC 72851
P/2010 H2 (Vales),e,14.2795,64.1873,128.0405,3.831742,0.1314043,0.19710602,293.9434,10/24.0/2023,2000,g  6.0,4.0
# From MPC 70361
P/2010 H3 (SOHO),e,23.1333,77.1640,26.0774,3.036037,0.1863131,0.98547446,0.0000,05/25.1106/2026,2000,g 20.0,2.0
# From MPC 73463
P/2010 H4 (Scotti),e,2.3179,44.6161,179.2035,6.607140,0.0580342,0.26602803,284.3257,10/24.0/2023,2000,g 10.5,4.0
# From MPC 74637
P/2010 H5 (Scotti),e,14.0574,24.5908,174.6226,7.175184,0.0512808,0.15289022,255.4259,10/24.0/2023,2000,g 13.0,2.0
# From MPC 98558
P/2010 J3 (McMillan),e,13.2457,106.5067,157.5226,8.984501,0.0365985,0.72468316,176.1771,10/24.0/2023,2000,g 11.0,4.0
# From MPC 84315
P/2010 JC81 (WISE),e,38.8224,30.8801,12.4459,8.103720,0.0427245,0.77828656,194.8258,10/24.0/2023,2000,g  9.0,4.0
# From MPC 74248
P/2010 T2 (PANSTARRS),e,7.8884,57.9701,352.1365,5.628569,0.0738086,0.32877702,349.9324,10/24.0/2023,2000,g 11.5,4.0
# From MPEC 2023-O88
P/2010 TO20 (LINEAR-Grauer),e,2.4788,43.2733,267.8182,5.832114,0.0699786,0.05550486,22.8506,10/24.0/2023,2000,g  9.0,4.0
# From MPC 82316
P/2010 U1 (Boattini),e,8.2245,280.8047,86.3472,6.495287,0.0595397,0.24912326,297.4952,10/24.0/2023,2000,g  9.5,4.0
# From MPEC 2023-J95
C/2010 U3 (Boattini),e,55.5671,42.9872,88.0385,3737,0.0000043,0.99774212,0.0000,02/25.8904/2019,2000,g  1.0,4.0
# From MPC 79021
P/2010 UH55 (Spacewatch),e,8.0374,232.9018,225.1569,6.653483,0.0574289,0.56426843,263.3110,10/24.0/2023,2000,g 11.0,4.0
# From MPC 75009
P/2010 WK (LINEAR),e,11.4022,11.3442,40.9960,5.762269,0.0712547,0.69069833,340.6676,10/24.0/2023,2000,g 14.5,2.0
# From MPC 84021
P/2011 C2 (Gibbs),e,10.8878,11.9535,160.4018,7.412985,0.0488331,0.26962420,211.8638,10/24.0/2023,2000,g  9.0,4.0
# From MPC 79866
P/2011 FR143 (Lemmon),e,15.9734,190.8744,349.8581,6.868679,0.0547513,0.45134618,254.2151,10/24.0/2023,2000,g 14.0,2.0
# From MPC 82317
P/2011 JB15 (Spacewatch-Boattini),e,19.1354,153.5568,110.9812,7.372656,0.0492343,0.31500342,212.0239,10/24.0/2023,2000,g  9.0,4.0
# From MPC 87913
P/2011 N1 (ASH),e,35.7777,77.6272,330.3995,6.240554,0.0632222,0.54550883,263.3762,10/24.0/2023,2000,g 11.5,4.0
# From MPC 75714
P/2011 NO1 (Elenin),e,15.2454,295.8152,263.7182,5.536064,0.0756663,0.77483447,353.6475,10/24.0/2023,2000,g 15.0,4.0
# From MPEC 2022-ED3
P/2011 P1 (McNaught),e,5.6579,4.2918,349.1705,7.458039,0.0483913,0.32741487,233.5774,10/24.0/2023,2000,g  9.0,4.0
# From MPEC 2022-HC2
